{
  "type": "FeatureCollection",
  "features": [
    {
      "type": "Feature",
      "properties": {
        "norad_id": 66541,
        "name": "STARLINK-35796",
        "group": "last-30-days",
        "lat": 5.5010396725537065,
        "lon": 117.78928995974822,
        "alt_km": 343.85633983112075,
        "timestamp": "2025-12-02T23:34:14.291503+00:00",
        "meta_object_name": "STARLINK-35796",
        "meta_object_id": "2025-265AB",
        "meta_epoch": "2025-12-02T12:00:05.998752",
        "meta_mean_motion": 15.75021365,
        "meta_eccentricity": 0.0001644,
        "meta_inclination": 42.9996,
        "meta_ra_of_asc_node": 114.7822,
        "meta_arg_of_pericenter": 253.5941,
        "meta_mean_anomaly": 257.9657,
        "meta_ephemeris_type": 0,
        "meta_classification_type": "U",
        "meta_norad_cat_id": 66541,
        "meta_element_set_no": 999,
        "meta_rev_at_epoch": 335,
        "meta_bstar": 0.00031396,
        "meta_mean_motion_dot": 0.00047986,
        "meta_mean_motion_ddot": 0,
        "tle_line1": "1 66541U 25265AB  25336.50006943  .00047986  00000+0  31396-3 0  9996",
        "tle_line2": "2 66541  42.9996 114.7822 0001644 253.5941 257.9657 15.75021365  3359"
      },
      "geometry": {
        "type": "Point",
        "coordinates": [
          117.78928995974822,
          5.5010396725537065
        ]
      }
    },
    {
      "type": "Feature",
      "properties": {
        "norad_id": 66542,
        "name": "STARLINK-35833",
        "group": "last-30-days",
        "lat": 6.779691796935737,
        "lon": 119.1818028600405,
        "alt_km": 343.77470365589033,
        "timestamp": "2025-12-02T23:34:14.291514+00:00",
        "meta_object_name": "STARLINK-35833",
        "meta_object_id": "2025-265AC",
        "meta_epoch": "2025-12-02T12:00:05.998752",
        "meta_mean_motion": 15.75057042,
        "meta_eccentricity": 0.000165,
        "meta_inclination": 42.9995,
        "meta_ra_of_asc_node": 114.7771,
        "meta_arg_of_pericenter": 260.4622,
        "meta_mean_anomaly": 253.0079,
        "meta_ephemeris_type": 0,
        "meta_classification_type": "U",
        "meta_norad_cat_id": 66542,
        "meta_element_set_no": 999,
        "meta_rev_at_epoch": 335,
        "meta_bstar": -0.00035174,
        "meta_mean_motion_dot": -0.00054205,
        "meta_mean_motion_ddot": 0,
        "tle_line1": "1 66542U 25265AC  25336.50006943 -.00054205  00000+0 -35174-3 0  9999",
        "tle_line2": "2 66542  42.9995 114.7771 0001650 260.4622 253.0079 15.75057042  3358"
      },
      "geometry": {
        "type": "Point",
        "coordinates": [
          119.1818028600405,
          6.779691796935737
        ]
      }
    },
    {
      "type": "Feature",
      "properties": {
        "norad_id": 66543,
        "name": "STARLINK-35315",
        "group": "last-30-days",
        "lat": 8.084375920289263,
        "lon": 120.6149441484887,
        "alt_km": 343.49891036349527,
        "timestamp": "2025-12-02T23:34:14.291524+00:00",
        "meta_object_name": "STARLINK-35315",
        "meta_object_id": "2025-265AD",
        "meta_epoch": "2025-12-02T12:00:05.998752",
        "meta_mean_motion": 15.7502457,
        "meta_eccentricity": 0.0001646,
        "meta_inclination": 42.9998,
        "meta_ra_of_asc_node": 114.7721,
        "meta_arg_of_pericenter": 259.84,
        "meta_mean_anomaly": 255.5524,
        "meta_ephemeris_type": 0,
        "meta_classification_type": "U",
        "meta_norad_cat_id": 66543,
        "meta_element_set_no": 999,
        "meta_rev_at_epoch": 324,
        "meta_bstar": 0.00016791,
        "meta_mean_motion_dot": 0.00025376,
        "meta_mean_motion_ddot": 0,
        "tle_line1": "1 66543U 25265AD  25336.50006943  .00025376  00000+0  16791-3 0  9999",
        "tle_line2": "2 66543  42.9998 114.7721 0001646 259.8400 255.5524 15.75024570  3248"
      },
      "geometry": {
        "type": "Point",
        "coordinates": [
          120.6149441484887,
          8.084375920289263
        ]
      }
    },
    {
      "type": "Feature",
      "properties": {
        "norad_id": 66544,
        "name": "STARLINK-35728",
        "group": "last-30-days",
        "lat": 9.371861684726621,
        "lon": 122.04458973080462,
        "alt_km": 343.28014497326876,
        "timestamp": "2025-12-02T23:34:14.291533+00:00",
        "meta_object_name": "STARLINK-35728",
        "meta_object_id": "2025-265AE",
        "meta_epoch": "2025-12-02T12:00:05.998752",
        "meta_mean_motion": 15.75024585,
        "meta_eccentricity": 0.0001567,
        "meta_inclination": 42.9995,
        "meta_ra_of_asc_node": 114.7677,
        "meta_arg_of_pericenter": 262.7916,
        "meta_mean_anomaly": 254.5168,
        "meta_ephemeris_type": 0,
        "meta_classification_type": "U",
        "meta_norad_cat_id": 66544,
        "meta_element_set_no": 999,
        "meta_rev_at_epoch": 335,
        "meta_bstar": 0.00015772,
        "meta_mean_motion_dot": 0.00023803,
        "meta_mean_motion_ddot": 0,
        "tle_line1": "1 66544U 25265AE  25336.50006943  .00023803  00000+0  15772-3 0  9991",
        "tle_line2": "2 66544  42.9995 114.7677 0001567 262.7916 254.5168 15.75024585  3354"
      },
      "geometry": {
        "type": "Point",
        "coordinates": [
          122.04458973080462,
          9.371861684726621
        ]
      }
    },
    {
      "type": "Feature",
      "properties": {
        "norad_id": 66545,
        "name": "SHIJIAN-30A",
        "group": "last-30-days",
        "lat": -51.210161563347185,
        "lon": -59.89202402135719,
        "alt_km": 518.3460814013124,
        "timestamp": "2025-12-02T23:34:14.291545+00:00",
        "meta_object_name": "SHIJIAN-30A",
        "meta_object_id": "2025-266A",
        "meta_epoch": "2025-12-02T16:01:12.258336",
        "meta_mean_motion": 15.15312731,
        "meta_eccentricity": 0.0012752,
        "meta_inclination": 51.7995,
        "meta_ra_of_asc_node": 20.0423,
        "meta_arg_of_pericenter": 320.4736,
        "meta_mean_anomaly": 39.5309,
        "meta_ephemeris_type": 0,
        "meta_classification_type": "U",
        "meta_norad_cat_id": 66545,
        "meta_element_set_no": 999,
        "meta_rev_at_epoch": 205,
        "meta_bstar": 0.00079898,
        "meta_mean_motion_dot": 0.00014991,
        "meta_mean_motion_ddot": 0,
        "tle_line1": "1 66545U 25266A   25336.66750299  .00014991  00000+0  79898-3 0  9997",
        "tle_line2": "2 66545  51.7995  20.0423 0012752 320.4736  39.5309 15.15312731  2052"
      },
      "geometry": {
        "type": "Point",
        "coordinates": [
          -59.89202402135719,
          -51.210161563347185
        ]
      }
    },
    {
      "type": "Feature",
      "properties": {
        "norad_id": 66546,
        "name": "SHIJIAN-30B",
        "group": "last-30-days",
        "lat": -51.74502277722662,
        "lon": -68.61464194539508,
        "alt_km": 520.1134916373858,
        "timestamp": "2025-12-02T23:34:14.291558+00:00",
        "meta_object_name": "SHIJIAN-30B",
        "meta_object_id": "2025-266B",
        "meta_epoch": "2025-12-02T16:02:40.382016",
        "meta_mean_motion": 15.1537133,
        "meta_eccentricity": 0.0010433,
        "meta_inclination": 51.7978,
        "meta_ra_of_asc_node": 20.0472,
        "meta_arg_of_pericenter": 323.4151,
        "meta_mean_anomaly": 36.6112,
        "meta_ephemeris_type": 0,
        "meta_classification_type": "U",
        "meta_norad_cat_id": 66546,
        "meta_element_set_no": 999,
        "meta_rev_at_epoch": 205,
        "meta_bstar": 0.00092142,
        "meta_mean_motion_dot": 0.0001736,
        "meta_mean_motion_ddot": 0,
        "tle_line1": "1 66546U 25266B   25336.66852294  .00017360  00000+0  92142-3 0  9996",
        "tle_line2": "2 66546  51.7978  20.0472 0010433 323.4151  36.6112 15.15371330  2056"
      },
      "geometry": {
        "type": "Point",
        "coordinates": [
          -68.61464194539508,
          -51.74502277722662
        ]
      }
    },
    {
      "type": "Feature",
      "properties": {
        "norad_id": 66547,
        "name": "SHIJIAN-30C",
        "group": "last-30-days",
        "lat": -51.713144202899514,
        "lon": -75.36821715746534,
        "alt_km": 519.2413215463976,
        "timestamp": "2025-12-02T23:34:14.291568+00:00",
        "meta_object_name": "SHIJIAN-30C",
        "meta_object_id": "2025-266C",
        "meta_epoch": "2025-12-02T14:28:49.291392",
        "meta_mean_motion": 15.15409301,
        "meta_eccentricity": 0.0011327,
        "meta_inclination": 51.7989,
        "meta_ra_of_asc_node": 20.3617,
        "meta_arg_of_pericenter": 315.3945,
        "meta_mean_anomaly": 44.6119,
        "meta_ephemeris_type": 0,
        "meta_classification_type": "U",
        "meta_norad_cat_id": 66547,
        "meta_element_set_no": 999,
        "meta_rev_at_epoch": 204,
        "meta_bstar": 0.00080329,
        "meta_mean_motion_dot": 0.00015109,
        "meta_mean_motion_ddot": 0,
        "tle_line1": "1 66547U 25266C   25336.60334828  .00015109  00000+0  80329-3 0  9992",
        "tle_line2": "2 66547  51.7989  20.3617 0011327 315.3945  44.6119 15.15409301  2042"
      },
      "geometry": {
        "type": "Point",
        "coordinates": [
          -75.36821715746534,
          -51.713144202899514
        ]
      }
    }
  ]
}